MEAN_MOTION;ECCENTRICITY;INCLINATION;RA_OF_ASC_NODE;ARG_OF_PERICENTER;MEAN_ANOMALY;BSTAR;MEAN_MOTION_DOT;MEAN_MOTION_DDOT;TYPE
1.00271527;8.11E-5;0.0277;227.9966;82.872;215.5198;0;1.42E-6;0;Intelsat
1.00271703;7.83E-5;0.0266;225.5956;89.3515;20.6538;0;1.4E-6;0;Intelsat
1.00271911;7.77E-5;0.0254;223.0264;95.0811;195.2085;0;1.38E-6;0;Intelsat
1.00272163;7.42E-5;0.0236;219.3593;104.5581;62.6413;0;1.36E-6;0;Intelsat
1.0027234;7.37E-5;0.0231;217.6663;109.2498;189.2069;0;1.35E-6;0;Intelsat
1.00272654;7.0E-5;0.0213;213.0467;121.3076;80.922;0;1.33E-6;0;Intelsat
1.00272713;7.01E-5;0.0213;212.4608;122.9381;119.0588;0;1.32E-6;0;Intelsat
1.0027281;6.98E-5;0.021;212.1725;125.2096;181.5593;0;1.32E-6;0;Intelsat
1.00273157;6.66E-5;0.0195;207.4841;138.4929;72.1295;0;1.31E-6;0;Intelsat
1.00272375;6.11E-5;0.0194;207.2486;138.0199;90.0595;0;1.31E-6;0;Intelsat
1.00272872;5.88E-5;0.0183;203.814;153.9048;353.3631;0;1.3E-6;0;Intelsat
1.00273149;6.02E-5;0.0176;201.1381;162.9143;166.7718;0;1.3E-6;0;Intelsat
1.00273643;6.12E-5;0.0169;196.6672;178.9813;99.9043;0;1.3E-6;0;Intelsat
1.00273733;6.19E-5;0.0166;196.1975;181.4835;146.9121;0;1.3E-6;0;Intelsat
1.00274328;6.53E-5;0.0161;190.8263;198.8576;114.5666;0;1.31E-6;0;Intelsat
1.00274374;6.57E-5;0.016;190.5058;200.058;139.6045;0;1.31E-6;0;Intelsat
1.0027504;7.18E-5;0.0155;187.1834;214.8496;132.0229;0;1.32E-6;0;Intelsat
1.00275213;7.24E-5;0.0158;186.1463;217.9365;228.7471;0;1.33E-6;0;Intelsat
1.00263759;9.69E-5;0.0158;182.6067;168.6164;132.7471;0;1.33E-6;0;Intelsat
1.00258934;8.65E-5;0.0157;182.2973;187.3315;140.2546;0;1.33E-6;0;Intelsat
1.0026541;8.76E-5;0.016;177.1954;179.2098;156.2472;0;1.34E-6;0;Intelsat
1.00272506;9.95E-5;0.0267;230.8872;107.9521;288.6818;0;1.35E-6;0;Intelsat
1.00271611;8.75E-5;0.0252;229.0625;107.8278;196.3295;0;1.35E-6;0;Intelsat
1.00271779;8.61E-5;0.0245;227.7357;109.9965;287.4891;0;1.35E-6;0;Intelsat
1.00271977;8.33E-5;0.0236;226.4462;112.9812;75.1827;0;1.35E-6;0;Intelsat
1.0027221;7.95E-5;0.0232;225.6522;115.4817;195.5791;0;1.36E-6;0;Intelsat
1.0027236;7.8E-5;0.0227;224.1474;117.9478;286.118;0;1.36E-6;0;Intelsat
1.00272722;8.03E-5;0.0218;222.676;114.627;80.1189;0;1.36E-6;0;Intelsat
1.00272783;7.38E-5;0.0216;221.9947;122.2842;176.7627;0;1.36E-6;0;Intelsat
1.00273158;7.11E-5;0.0203;219.1098;127.3718;47.7444;0;1.37E-6;0;Intelsat
1.00273203;7.07E-5;0.0201;218.5498;128.1179;73.4526;0;1.37E-6;0;Intelsat
1.00273373;6.84E-5;0.0199;217.861;129.5357;176.4529;0;1.37E-6;0;Intelsat
1.00273723;6.61E-5;0.0187;214.7388;134.8561;47.4791;0;1.38E-6;0;Intelsat
1.00273922;6.4E-5;0.0185;213.507;136.5998;176.5545;0;1.39E-6;0;Intelsat
1.00274254;6.19E-5;0.0175;210.2859;142.0517;47.5541;0;1.4E-6;0;Intelsat
1.00274447;6.06E-5;0.0172;209.1142;143.1826;177.1445;0;1.4E-6;0;Intelsat
1.00274917;5.81E-5;0.0163;205.1495;148.612;152.6056;0;1.42E-6;0;Intelsat
1.00274986;5.76E-5;0.016;204.4108;149.2867;204.476;0;1.43E-6;0;Intelsat
1.00275444;5.59E-5;0.0153;202.1107;152.6138;186.9424;0;1.45E-6;0;Intelsat
1.00271885;2.14E-5;0.0151;198.7054;159.3971;355.0322;0;1.46E-6;0;Intelsat
1.00272108;2.32E-5;0.0148;197.5108;148.6812;191.6833;0;1.47E-6;0;Intelsat
1.00272385;2.26E-5;0.0146;194.8033;152.3038;16.29;0;1.48E-6;0;Intelsat
1.00272585;2.49E-5;0.0145;191.6596;147.8134;225.6157;0;1.5E-6;0;Intelsat
1.00272798;2.49E-5;0.0147;189.7678;149.4402;74.7272;0;1.51E-6;0;Intelsat
1.00272774;2.13E-5;0.0148;189.4465;167.8068;134.4015;0;1.51E-6;0;Intelsat
1.00272835;2.19E-5;0.0146;188.5612;168.5096;186.4251;0;1.51E-6;0;Intelsat
1.00273018;2.15E-5;0.0148;186.3587;172.6844;2.319;0;1.52E-6;0;Intelsat
1.00273197;2.19E-5;0.015;184.5529;176.6279;159.2196;0;1.53E-6;0;Intelsat
1.00273225;2.23E-5;0.0151;183.9127;177.3353;185.0697;0;1.53E-6;0;Intelsat
1.00264537;7.18E-5;0.0159;179.6032;150.1304;193.4554;0;1.53E-6;0;Intelsat
1.00266024;7.89E-5;0.016;178.9592;147.5797;221.5561;0;1.53E-6;0;Intelsat
1.00266224;8.07E-5;0.0171;174.9247;152.4825;150.6641;0;1.53E-6;0;Intelsat
1.00271472;9.88E-5;0.0196;227.2349;85.6418;40.6366;0;1.53E-6;0;Intelsat
1.00271557;9.98E-5;0.0186;225.3295;87.6294;241.7271;0;1.52E-6;0;Intelsat
1.00271683;9.79E-5;0.0179;224.0503;90.5516;42.1524;0;1.51E-6;0;Intelsat
1.00271869;9.67E-5;0.0172;221.7909;93.7942;217.1497;0;1.49E-6;0;Intelsat
1.00272178;9.51E-5;0.0162;217.4952;101.083;153.59;0;1.47E-6;0;Intelsat
1.00272236;9.5E-5;0.0159;217.8024;101.2788;209.7517;0;1.46E-6;0;Intelsat
1.00272614;9.06E-5;0.015;212.1691;111.7433;187.3586;0;1.43E-6;0;Intelsat
1.00272665;8.97E-5;0.0147;211.3242;113.3402;229.5975;0;1.43E-6;0;Intelsat
1.00273029;8.57E-5;0.0143;206.3491;123.864;183.8412;0;1.4E-6;0;Intelsat
1.00273061;8.52E-5;0.0141;205.8532;124.8731;209.2454;0;1.39E-6;0;Intelsat
1.00273507;8.03E-5;0.0139;199.7347;138.33;199.1995;0;1.37E-6;0;Intelsat
1.00273997;7.5E-5;0.0145;195.7037;151.5936;194.5576;0;1.35E-6;0;Intelsat
1.00274368;7.15E-5;0.0154;190.6573;163.2139;90.8705;0;1.34E-6;0;Intelsat
1.00271636;7.89E-5;0.0172;181.5431;169.3479;228.7481;0;1.34E-6;0;Intelsat
1.00272057;7.57E-5;0.0186;177.4398;179.7627;119.0455;0;1.35E-6;0;Intelsat
1.00272781;7.05E-5;0.0212;168.6536;201.2257;161.0119;0;1.36E-6;0;Intelsat
1.00272841;7.01E-5;0.0217;167.3777;203.7516;193.0582;0;1.36E-6;0;Intelsat
1.00273439;6.74E-5;0.0242;160.4975;221.4565;151.7442;0;1.38E-6;0;Intelsat
1.00273485;6.73E-5;0.0246;159.5183;223.3718;176.7257;0;1.38E-6;0;Intelsat
1.00266016;7.92E-5;0.0273;151.7092;183.7777;201.0131;0;1.39E-6;0;Intelsat
1.0026592;7.82E-5;0.0277;150.8588;186.0636;228.9754;0;1.38E-6;0;Intelsat
1.00266278;7.12E-5;0.0296;146.5331;194.0631;95.0237;0;1.39E-6;0;Intelsat
1.00271884;7.4E-5;0.0167;226.6242;88.1803;328.1473;0;1.4E-6;0;Intelsat
1.00271983;6.91E-5;0.0161;224.9139;89.4029;124.105;0;1.4E-6;0;Intelsat
1.00272174;6.52E-5;0.0156;224.2983;89.4496;254.262;0;1.4E-6;0;Intelsat
1.00272304;6.31E-5;0.0155;222.5658;91.2497;346.0416;0;1.41E-6;0;Intelsat
1.00272598;5.89E-5;0.0151;220.337;92.9663;157.1404;0;1.41E-6;0;Intelsat
1.00272769;5.52E-5;0.0148;219.9603;92.6575;253.9686;0;1.41E-6;0;Intelsat
1.00272954;5.36E-5;0.0147;217.9008;94.3805;6.8872;0;1.42E-6;0;Intelsat
1.00273109;5.19E-5;0.0142;214.9125;97.0522;106.1566;0;1.42E-6;0;Intelsat
1.00273375;4.72E-5;0.0139;212.8569;96.9112;263.8311;0;1.42E-6;0;Intelsat
1.00273694;4.45E-5;0.0141;210.3826;98.3126;112.2313;0;1.43E-6;0;Intelsat
1.00273934;4.12E-5;0.014;208.3511;97.0794;263.3897;0;1.43E-6;0;Intelsat
1.00274417;3.77E-5;0.0143;203.2851;97.5412;226.5668;0;1.45E-6;0;Intelsat
1.00274491;3.69E-5;0.0144;201.6763;97.5893;279.9629;0;1.45E-6;0;Intelsat
1.0027495;3.48E-5;0.015;196.4679;97.2621;246.4424;0;1.47E-6;0;Intelsat
1.00274971;3.47E-5;0.015;195.9179;97.2606;262.9403;0;1.47E-6;0;Intelsat
1.0027544;3.39E-5;0.0162;189.7663;97.5111;250.3653;0;1.49E-6;0;Intelsat
1.00271746;2.98E-5;0.0173;185.3005;161.854;32.6047;0;1.51E-6;0;Intelsat
1.00271943;2.8E-5;0.0184;181.0709;163.2066;228.0062;0;1.52E-6;0;Intelsat
1.00272329;2.58E-5;0.0206;174.3922;165.7423;197.1673;0;1.55E-6;0;Intelsat
1.00272376;2.53E-5;0.0211;172.7556;167.0245;233.4906;0;1.55E-6;0;Intelsat
1.00272663;2.81E-5;0.0233;167.3388;165.1565;105.225;0;1.56E-6;0;Intelsat
1.00272759;2.37E-5;0.0239;164.9352;170.5488;205.9085;0;1.57E-6;0;Intelsat
1.00272796;2.38E-5;0.0245;163.3196;171.5751;239.3635;0;1.57E-6;0;Intelsat
1.00273037;2.23E-5;0.0271;157.4465;173.4087;109.6781;0;1.58E-6;0;Intelsat
1.00273162;2.27E-5;0.028;154.1329;176.4373;213.6098;0;1.59E-6;0;Intelsat
1.00273191;2.29E-5;0.0295;151.3933;179.0429;239.6611;0;1.59E-6;0;Intelsat
1.00273425;2.16E-5;0.0325;144.273;182.8507;116.1925;0;1.6E-6;0;Intelsat
1.00265982;7.27E-5;0.0373;127.8336;257.3343;355.7501;0;1.6E-6;0;Intelsat
1.00274766;6.76E-5;0.017;237.9171;107.4677;204.3629;0;1.6E-6;0;Intelsat
1.00271285;4.98E-5;0.0168;237.7483;113.9387;223.2576;0;1.6E-6;0;Intelsat
1.00271248;5.02E-5;0.0166;236.8967;116.1091;318.9517;0;1.6E-6;0;Intelsat
1.00271482;4.79E-5;0.0154;234.4651;120.3563;223.6636;0;1.59E-6;0;Intelsat
1.00271578;4.88E-5;0.0154;233.2244;122.4638;320.2223;0;1.59E-6;0;Intelsat
1.00271863;4.83E-5;0.0145;230.2399;127.4983;219.1739;0;1.57E-6;0;Intelsat
1.00271973;4.91E-5;0.0146;228.6297;130.4392;322.5697;0;1.57E-6;0;Intelsat
1.00272355;4.87E-5;0.0142;221.9329;143.1359;332.6572;0;1.54E-6;0;Intelsat
1.00272541;4.84E-5;0.0144;218.1299;149.0198;142.8909;0;1.52E-6;0;Intelsat
1.00272844;4.91E-5;0.0153;209.6432;164.7091;59.8489;0;1.49E-6;0;Intelsat
1.00273012;4.92E-5;0.0155;207.0596;170.8443;185.8525;0;1.48E-6;0;Intelsat
1.00273309;5.06E-5;0.0175;197.8985;187.7618;77.2379;0;1.46E-6;0;Intelsat
1.00273404;5.1E-5;0.0174;197.2689;190.2021;143.2478;0;1.45E-6;0;Intelsat
1.00273453;5.11E-5;0.0177;195.1989;193.9051;177.458;0;1.45E-6;0;Intelsat
1.00273737;5.33E-5;0.02;186.2339;209.5318;44.0535;0;1.43E-6;0;Intelsat
1.00270277;8.25E-5;0.0215;180.6914;205.6678;208.9361;0;1.43E-6;0;Intelsat
1.00270218;8.38E-5;0.0218;179.973;209.5956;283.4448;0;1.42E-6;0;Intelsat
1.00270563;8.47E-5;0.0273;163.6656;233.9483;204.7559;0;1.41E-6;0;Intelsat
1.0027068;8.51E-5;0.0283;160.9195;237.4662;277.4196;0;1.41E-6;0;Intelsat
1.002711;8.84E-5;0.0357;136.5044;268.1047;183.7157;0;1.41E-6;0;Intelsat
1.00271243;8.85E-5;0.0366;133.9691;272.6645;271.9775;0;1.41E-6;0;Intelsat
1.0027169;9.28E-5;0.0408;123.6238;288.6863;175.9975;0;1.42E-6;0;Intelsat
1.00271907;9.32E-5;0.043;126.5089;288.6048;306.8068;0;1.42E-6;0;Intelsat
1.00272312;9.79E-5;0.0407;131.0174;288.579;174.2091;0;1.43E-6;0;Intelsat
1.00272376;9.79E-5;0.0324;113.5286;306.8336;212.0345;0;1.43E-6;0;Intelsat
1.00272883;0.0001032;0.0408;117.3102;308.261;131.8729;0;1.44E-6;0;Intelsat
1.00273585;0.000109;0.0488;129.9336;302.4332;157.9027;0;1.45E-6;0;Intelsat
1.0027371;0.000109;0.0493;129.8629;303.3938;230.6564;0;1.45E-6;0;Intelsat
1.00274234;0.0001141;0.0471;123.0405;314.9294;152.7912;0;1.46E-6;0;Intelsat
1.00274362;0.0001144;0.0408;116.0654;322.8193;227.8442;0;1.46E-6;0;Intelsat
1.00274502;0.0001146;0.0413;116.3575;323.1328;307.9525;0;1.46E-6;0;Intelsat
1.00262858;0.0001435;0.0126;114.4716;308.3651;143.0026;0;1.46E-6;0;Intelsat
1.0026412;0.0001439;0.0073;130.3287;277.4203;343.4046;0;1.47E-6;0;Intelsat
